NORAD_CAT_ID,OBJECT_NAME,OBJECT_TYPE,EPOCH,MEAN_MOTION,ECCENTRICITY,INCLINATION,RA_OF_ASC_NODE,ARG_OF_PERICENTER,MEAN_ANOMALY,BSTAR,MEAN_MOTION_DOT,MEAN_MOTION_DDOT,TLE_LINE0,TLE_LINE1,TLE_LINE2,SEMIMAJOR_AXIS,PERIOD,APOGEE,PERIGEE,DECAYED
55412.0,STARLINK-5033,PAYLOAD,2024-02-26 13:50:14,14.98327611,0.0002642,70.0014,155.477,262.0251,98.0608,-1.3024e-05,-2.48e-06,0.0,0 STARLINK-5033,1 55412U 23014X   24057.57655951 -.00000248  00000-0 -13024-4 0  9998,2 55412  70.0014 155.4770 0002642 262.0251  98.0608 14.98327611 60405,6950.2,96.107,573.902,570.229,0.0
55412.0,STARLINK-5033,PAYLOAD,2024-02-26 15:26:22,14.98328015,0.0002611,70.0012,155.3088,261.6931,98.3932,-7.7812e-06,-1.86e-06,0.0,0 STARLINK-5033,1 55412U 23014X   24057.64331917 -.00000186  00000-0 -77812-5 0  9996,2 55412  70.0012 155.3088 0002611 261.6931  98.3932 14.98328015 60413,6950.199,96.107,573.879,570.249,0.0
55412.0,STARLINK-5033,PAYLOAD,2024-02-27 12:16:08,14.98324615,0.0002481,70.0016,153.1201,266.4715,93.616,-0.00012115,-1.538e-05,0.0,0 STARLINK-5033,1 55412U 23014X   24058.51120627 -.00001538  00000-0 -12115-3 0  9992,2 55412  70.0016 153.1201 0002481 266.4715  93.6160 14.98324615 59600,6950.21,96.107,573.799,570.35,0.0
55412.0,STARLINK-5033,PAYLOAD,2024-02-27 13:52:16,14.98324215,0.000252,70.0013,152.9514,266.1293,93.9578,-0.00013065,-1.651e-05,0.0,0 STARLINK-5033,1 55412U 23014X   24058.57796696 -.00001651  00000-0 -13065-3 0  9994,2 55412  70.0013 152.9514 0002520 266.1293  93.9578 14.98324215 60551,6950.211,96.107,573.827,570.324,0.0
55412.0,STARLINK-5033,PAYLOAD,2024-02-27 15:28:24,14.98326537,0.0002632,70.001,152.783,269.5658,90.52,-0.00014445,-1.816e-05,0.0,0 STARLINK-5033,1 55412U 23014X   24058.64472598 -.00001816  00000-0 -14445-3 0  9990,2 55412  70.0010 152.7830 0002632 269.5658  90.5200 14.98326537 60568,6950.204,96.107,573.898,570.239,0.0
55412.0,STARLINK-5033,PAYLOAD,2024-02-27 23:29:04,14.98331079,0.0002784,70.0008,151.9414,271.5262,88.5578,-0.00011347,-1.447e-05,0.0,0 STARLINK-5033,1 55412U 23014X   24058.97852235 -.00001447  00000-0 -11347-3 0  9994,2 55412  70.0008 151.9414 0002784 271.5262  88.5578 14.98331079 59678,6950.19,96.107,573.989,570.12,0.0
55412.0,STARLINK-5033,PAYLOAD,2024-02-28 13:54:16,14.98327261,0.0002912,70.0004,150.4258,272.6102,87.4724,5.8019e-06,-2.4e-07,0.0,0 STARLINK-5033,1 55412U 23014X   24059.57936290 -.00000024  00000-0  58019-5 0  9993,2 55412  70.0004 150.4258 0002912 272.6102  87.4724 14.98327261 60707,6950.201,96.107,574.09,570.042,0.0
55412.0,STARLINK-5033,PAYLOAD,2024-02-28 15:30:24,14.98327849,0.0002907,70.0004,150.2575,272.7001,87.3825,1.2746e-05,5.9e-07,0.0,0 STARLINK-5033,1 55412U 23014X   24059.64612248  .00000059  00000-0  12746-4 0  9998,2 55412  70.0004 150.2575 0002907 272.7001  87.3825 14.98327849 60714,6950.2,96.107,574.085,570.044,0.0
55412.0,STARLINK-5033,PAYLOAD,2024-02-29 12:20:09,14.9833151,0.0003019,70.0001,148.0688,272.2291,87.8522,0.00010591,1.171e-05,0.0,0 STARLINK-5033,1 55412U 23014X   24060.51399826  .00001171  00000-0  10591-3 0  9991,2 55412  70.0001 148.0688 0003019 272.2291  87.8522 14.98331510 59900,6950.188,96.107,574.151,569.955,0.0
55412.0,STARLINK-5033,PAYLOAD,2024-02-29 13:56:17,14.98331658,0.0003015,70.0001,147.9004,272.2597,87.8217,0.00010537,1.165e-05,0.0,0 STARLINK-5033,1 55412U 23014X   24060.58075808  .00001165  00000-0  10537-3 0  9992,2 55412  70.0001 147.9004 0003015 272.2597  87.8217 14.98331658 60855,6950.188,96.107,574.148,569.957,0.0
55412.0,STARLINK-5033,PAYLOAD,2024-02-29 15:32:25,14.98333009,0.0003006,70.0001,147.7322,272.2393,87.8422,0.00011851,1.321e-05,0.0,0 STARLINK-5033,1 55412U 23014X   24060.64751679  .00001321  00000-0  11851-3 0  9990,2 55412  70.0001 147.7322 0003006 272.2393  87.8422 14.98333009 60861,6950.184,96.107,574.138,569.959,0.0
55412.0,STARLINK-5033,PAYLOAD,2024-03-01 12:22:10,14.98332392,0.0002928,70.0004,145.5442,267.6741,92.4083,4.6301e-05,4.6e-06,0.0,0 STARLINK-5033,1 55412U 23014X   24061.51539841  .00000460  00000-0  46301-4 0  9994,2 55412  70.0004 145.5442 0002928 267.6741  92.4083 14.98332392 60050,6950.185,96.107,574.086,570.015,0.0
55412.0,STARLINK-5033,PAYLOAD,2024-03-01 13:58:18,14.98334583,0.0003022,70.0004,145.3758,271.1198,88.9615,4.5828e-05,4.54e-06,0.0,0 STARLINK-5033,1 55412U 23014X   24061.58215687  .00000454  00000-0  45828-4 0  9996,2 55412  70.0004 145.3758 0003022 271.1198  88.9615 14.98334583 61001,6950.179,96.107,574.144,569.943,0.0
55412.0,STARLINK-5033,PAYLOAD,2024-03-01 15:34:26,14.98336394,0.0003131,70.0,145.2074,270.8355,89.2446,5.991e-05,6.22e-06,0.0,0 STARLINK-5033,1 55412U 23014X   24061.64891477  .00000622  00000-0  59910-4 0  9994,2 55412  70.0000 145.2074 0003131 270.8355  89.2446 14.98336394 61018,6950.173,96.107,574.214,569.862,0.0
55412.0,STARLINK-5033,PAYLOAD,2024-03-02 14:00:19,14.98337431,0.0002735,70.0005,142.8513,266.8165,93.2681,-1.5959e-05,-2.83e-06,0.0,0 STARLINK-5033,1 55412U 23014X   24062.58355342 -.00000283  00000-0 -15959-4 0  9994,2 55412  70.0005 142.8513 0002735 266.8165  93.2681 14.98337431 61151,6950.17,96.107,573.936,570.134,0.0
55412.0,STARLINK-5033,PAYLOAD,2024-03-02 15:36:26,14.98337984,0.0002725,70.0007,142.6837,265.0852,94.9996,-7.1278e-06,-1.78e-06,0.0,0 STARLINK-5033,1 55412U 23014X   24062.65031245 -.00000178  00000-0 -71278-5 0  9995,2 55412  70.0007 142.6837 0002725 265.0852  94.9996 14.98337984 60220,6950.168,96.106,573.927,570.139,0.0
55412.0,STARLINK-5033,PAYLOAD,2024-03-03 10:50:04,14.98325504,0.0002642,70.0011,140.6645,260.092,99.9941,-2.4208e-05,-3.82e-06,0.0,0 STARLINK-5033,1 55412U 23014X   24063.45143934 -.00000382  00000-0 -24208-4 0  9990,2 55412  70.0011 140.6645 0002642 260.0920  99.9941 14.98325504 60342,6950.207,96.107,573.908,570.236,0.0
55412.0,STARLINK-5033,PAYLOAD,2024-03-03 14:02:20,14.98323417,0.0002658,70.001,140.3285,260.2771,99.8088,-5.636e-05,-7.65e-06,0.0,0 STARLINK-5033,1 55412U 23014X   24063.58496217 -.00000765  00000-0 -56360-4 0  9998,2 55412  70.0010 140.3285 0002658 260.2771  99.8088 14.98323417 61300,6950.213,96.107,573.926,570.231,0.0
55412.0,STARLINK-5033,PAYLOAD,2024-03-04 10:52:02,14.98362875,0.0002329,70.0018,138.1413,257.2692,102.8207,0.00033507,3.911e-05,0.0,0 STARLINK-5033,1 55412U 23014X   24064.45280240  .00003911  00000-0  33507-3 0  9993,2 55412  70.0018 138.1413 0002329 257.2692 102.8207 14.98362875 60497,6950.091,96.105,573.575,570.338,0.0
55412.0,STARLINK-5033,PAYLOAD,2024-03-04 14:04:22,14.98309608,0.0002602,70.0008,137.8033,264.9361,95.1501,-0.00029096,-3.561e-05,0.0,0 STARLINK-5033,1 55412U 23014X   24064.58636992 -.00003561  00000-0 -29096-3 0  9997,2 55412  70.0008 137.8033 0002602 264.9361  95.1501 14.98309608 61455,6950.256,96.108,573.929,570.312,0.0
55412.0,STARLINK-5033,PAYLOAD,2024-03-04 22:05:02,14.98318645,0.0003075,69.9999,136.9594,269.7595,90.3212,-0.00024441,-3.007e-05,0.0,0 STARLINK-5033,1 55412U 23014X   24064.92016361 -.00003007  00000-0 -24441-3 0  9991,2 55412  69.9999 136.9594 0003075 269.7595  90.3212 14.98318645 61503,6950.228,96.108,574.23,569.956,0.0
55412.0,STARLINK-5033,PAYLOAD,2024-03-05 04:29:34,14.98309417,0.0002956,69.9999,136.2874,266.212,93.8701,-0.00015795,-1.976e-05,0.0,0 STARLINK-5033,1 55412U 23014X   24065.18721048 -.00001976  00000-0 -15795-3 0  9990,2 55412  69.9999 136.2874 0002956 266.2120  93.8701 14.98309417 60608,6950.257,96.108,574.176,570.067,0.0
55412.0,STARLINK-5033,PAYLOAD,2024-03-05 14:06:23,14.9831297,0.0002707,70.0,135.2778,260.7235,99.3618,-8.4085e-05,-1.096e-05,0.0,0 STARLINK-5033,1 55412U 23014X   24065.58777011 -.00001096  00000-0 -84085-4 0  9997,2 55412  70.0000 135.2778 0002707 260.7235  99.3618 14.98312970 61603,6950.246,96.108,573.992,570.229,0.0
55412.0,STARLINK-5033,PAYLOAD,2024-03-06 04:31:35,14.98345671,0.0003225,69.9988,133.7602,267.4534,92.6256,-0.00037017,-4.509e-05,0.0,0 STARLINK-5033,1 55412U 23014X   24066.18860070 -.00004509  00000-0 -37017-3 0  9996,2 55412  69.9988 133.7602 0003225 267.4534  92.6256 14.98345671 60759,6950.144,96.106,574.251,569.768,0.0
55412.0,STARLINK-5033,PAYLOAD,2024-03-06 14:08:22,14.98352545,0.0002986,69.9995,132.752,268.3649,91.7168,-0.00024589,-3.027e-05,0.0,0 STARLINK-5033,1 55412U 23014X   24066.58914989 -.00003027  00000-0 -24589-3 0  9993,2 55412  69.9995 132.7520 0002986 268.3649  91.7168 14.98352545 61756,6950.123,96.106,574.063,569.913,0.0
55412.0,STARLINK-5033,PAYLOAD,2024-03-07 02:57:27,14.9832163,0.000311,69.9993,131.4042,269.3842,90.696,0.00020875,2.398e-05,0.0,0 STARLINK-5033,1 55412U 23014X   24067.12323802  .00002398  00000-0  20875-3 0  9994,2 55412  69.9993 131.4042 0003110 269.3842  90.6960 14.98321630 60898,6950.219,96.108,574.245,569.922,0.0
55412.0,STARLINK-5033,PAYLOAD,2024-03-07 14:10:23,14.98329854,0.0003151,69.9992,130.2264,270.2912,89.7886,0.00020385,2.34e-05,0.0,0 STARLINK-5033,1 55412U 23014X   24067.59055394  .00002340  00000-0  20385-3 0  9996,2 55412  69.9992 130.2264 0003151 270.2912  89.7886 14.98329854 61909,6950.193,96.107,574.248,569.868,0.0
55412.0,STARLINK-5033,PAYLOAD,2024-03-08 11:00:08,14.98337501,0.000305,69.9993,128.0381,270.8508,89.2302,-6.5904e-06,-1.72e-06,0.0,0 STARLINK-5033,1 55412U 23014X   24068.45843364 -.00000172  00000-0 -65904-5 0  9995,2 55412  69.9993 128.0381 0003050 270.8508  89.2302 14.98337501 62031,6950.17,96.107,574.154,569.915,0.0
55412.0,STARLINK-5033,PAYLOAD,2024-03-08 20:36:57,14.98334179,0.0003053,69.9993,127.0282,271.0069,89.074,-2.6066e-05,-4.04e-06,0.0,0 STARLINK-5033,1 55412U 23014X   24068.85899454 -.00000404  00000-0 -26066-4 0  9993,2 55412  69.9993 127.0282 0003053 271.0069  89.0740 14.98334179 62096,6950.18,96.107,574.167,569.923,0.0
55412.0,STARLINK-5033,PAYLOAD,2024-03-09 04:37:37,14.98329193,0.0002908,69.9998,126.1878,269.7484,90.3341,-7.1477e-05,-9.46e-06,0.0,0 STARLINK-5033,1 55412U 23014X   24069.19279875 -.00000946  00000-0 -71477-4 0  9997,2 55412  69.9998 126.1878 0002908 269.7484  90.3341 14.98329193 61209,6950.195,96.107,574.082,570.039,0.0
